CCSDS_OMM_VERS = 2.0
CREATION_DATE  = 
ORIGINATOR     = 

OBJECT_NAME    = ISS OBJECT XX
OBJECT_ID      = 1998-067XX
CENTER_NAME    = EARTH
REF_FRAME      = TEME
TIME_SYSTEM    = UTC
MEAN_ELEMENT_THEORY = SGP/SGP4

EPOCH          = 2026-03-07T07:04:53.605632
MEAN_MOTION    = 15.74002666
ECCENTRICITY   = .00069185
INCLINATION    = 51.6213
RA_OF_ASC_NODE = 76.3842
ARG_OF_PERICENTER = 68.8737
MEAN_ANOMALY   = 291.3001

EPHEMERIS_TYPE = 0
CLASSIFICATION_TYPE = U
NORAD_CAT_ID   = 66911
ELEMENT_SET_NO = 999
REV_AT_EPOCH   = 1481
BSTAR          = .21109141E-2
MEAN_MOTION_DOT = .318743E-2
MEAN_MOTION_DDOT = 0

CCSDS_OMM_VERS = 2.0
CREATION_DATE  = 
ORIGINATOR     = 

OBJECT_NAME    = ISS OBJECT XY
OBJECT_ID      = 1998-067XY
CENTER_NAME    = EARTH
REF_FRAME      = TEME
TIME_SYSTEM    = UTC
MEAN_ELEMENT_THEORY = SGP/SGP4

EPOCH          = 2026-03-07T06:43:55.939584
MEAN_MOTION    = 15.63154776
ECCENTRICITY   = .00031015
INCLINATION    = 51.6267
RA_OF_ASC_NODE = 79.3176
ARG_OF_PERICENTER = 75.0070
MEAN_ANOMALY   = 285.1268

EPHEMERIS_TYPE = 0
CLASSIFICATION_TYPE = U
NORAD_CAT_ID   = 66912
ELEMENT_SET_NO = 999
REV_AT_EPOCH   = 1477
BSTAR          = .12596843E-2
MEAN_MOTION_DOT = .118528E-2
MEAN_MOTION_DDOT = 0

CCSDS_OMM_VERS = 2.0
CREATION_DATE  = 
ORIGINATOR     = 

OBJECT_NAME    = ISS OBJECT XZ
OBJECT_ID      = 1998-067XZ
CENTER_NAME    = EARTH
REF_FRAME      = TEME
TIME_SYSTEM    = UTC
MEAN_ELEMENT_THEORY = SGP/SGP4

EPOCH          = 2026-03-07T06:43:42.144960
MEAN_MOTION    = 15.51601257
ECCENTRICITY   = .00095102
INCLINATION    = 51.6304
RA_OF_ASC_NODE = 83.8190
ARG_OF_PERICENTER = 177.5341
MEAN_ANOMALY   = 182.5698

EPHEMERIS_TYPE = 0
CLASSIFICATION_TYPE = U
NORAD_CAT_ID   = 67683
ELEMENT_SET_NO = 999
REV_AT_EPOCH   = 441
BSTAR          = .85311198E-3
MEAN_MOTION_DOT = .51497E-3
MEAN_MOTION_DDOT = 0

CCSDS_OMM_VERS = 2.0
CREATION_DATE  = 
ORIGINATOR     = 

OBJECT_NAME    = GXIBA-1
OBJECT_ID      = 1998-067YA
CENTER_NAME    = EARTH
REF_FRAME      = TEME
TIME_SYSTEM    = UTC
MEAN_ELEMENT_THEORY = SGP/SGP4

EPOCH          = 2026-03-07T01:31:56.356608
MEAN_MOTION    = 15.53815499
ECCENTRICITY   = .00108926
INCLINATION    = 51.6298
RA_OF_ASC_NODE = 84.6245
ARG_OF_PERICENTER = 167.0714
MEAN_ANOMALY   = 193.0558

EPHEMERIS_TYPE = 0
CLASSIFICATION_TYPE = U
NORAD_CAT_ID   = 67684
ELEMENT_SET_NO = 999
REV_AT_EPOCH   = 438
BSTAR          = .12346692E-2
MEAN_MOTION_DOT = .81342E-3
MEAN_MOTION_DDOT = 0

CCSDS_OMM_VERS = 2.0
CREATION_DATE  = 
ORIGINATOR     = 

OBJECT_NAME    = CORAL
OBJECT_ID      = 1998-067YB
CENTER_NAME    = EARTH
REF_FRAME      = TEME
TIME_SYSTEM    = UTC
MEAN_ELEMENT_THEORY = SGP/SGP4

EPOCH          = 2026-03-07T06:38:05.862336
MEAN_MOTION    = 15.51927917
ECCENTRICITY   = .00114231
INCLINATION    = 51.6303
RA_OF_ASC_NODE = 83.7927
ARG_OF_PERICENTER = 174.1516
MEAN_ANOMALY   = 185.9609

EPHEMERIS_TYPE = 0
CLASSIFICATION_TYPE = U
NORAD_CAT_ID   = 67685
ELEMENT_SET_NO = 999
REV_AT_EPOCH   = 441
BSTAR          = .90478991E-3
MEAN_MOTION_DOT = .55365E-3
MEAN_MOTION_DDOT = 0

CCSDS_OMM_VERS = 2.0
CREATION_DATE  = 
ORIGINATOR     = 

OBJECT_NAME    = ISS OBJECT YC
OBJECT_ID      = 1998-067YC
CENTER_NAME    = EARTH
REF_FRAME      = TEME
TIME_SYSTEM    = UTC
MEAN_ELEMENT_THEORY = SGP/SGP4

EPOCH          = 2026-03-07T06:31:17.520384
MEAN_MOTION    = 15.52411971
ECCENTRICITY   = .0007882
INCLINATION    = 51.6305
RA_OF_ASC_NODE = 83.7633
ARG_OF_PERICENTER = 141.8436
MEAN_ANOMALY   = 218.3113

EPHEMERIS_TYPE = 0
CLASSIFICATION_TYPE = U
NORAD_CAT_ID   = 67686
ELEMENT_SET_NO = 999
REV_AT_EPOCH   = 441
BSTAR          = .11420469E-2
MEAN_MOTION_DOT = .71287E-3
MEAN_MOTION_DDOT = 0

CCSDS_OMM_VERS = 2.0
CREATION_DATE  = 
ORIGINATOR     = 

OBJECT_NAME    = LEOPARD
OBJECT_ID      = 1998-067YD
CENTER_NAME    = EARTH
REF_FRAME      = TEME
TIME_SYSTEM    = UTC
MEAN_ELEMENT_THEORY = SGP/SGP4

EPOCH          = 2026-03-07T06:40:43.196736
MEAN_MOTION    = 15.51767020
ECCENTRICITY   = .00078596
INCLINATION    = 51.6310
RA_OF_ASC_NODE = 83.8063
ARG_OF_PERICENTER = 146.4188
MEAN_ANOMALY   = 213.7301

EPHEMERIS_TYPE = 0
CLASSIFICATION_TYPE = U
NORAD_CAT_ID   = 67687
ELEMENT_SET_NO = 999
REV_AT_EPOCH   = 433
BSTAR          = .89333361E-3
MEAN_MOTION_DOT = .54259E-3
MEAN_MOTION_DDOT = 0

CCSDS_OMM_VERS = 2.0
CREATION_DATE  = 
ORIGINATOR     = 

OBJECT_NAME    = ISS OBJECT YE
OBJECT_ID      = 1998-067YE
CENTER_NAME    = EARTH
REF_FRAME      = TEME
TIME_SYSTEM    = UTC
MEAN_ELEMENT_THEORY = SGP/SGP4

EPOCH          = 2026-03-07T05:01:38.352288
MEAN_MOTION    = 15.52177677
ECCENTRICITY   = .00077906
INCLINATION    = 51.6306
RA_OF_ASC_NODE = 84.0971
ARG_OF_PERICENTER = 142.0067
MEAN_ANOMALY   = 218.1474

EPHEMERIS_TYPE = 0
CLASSIFICATION_TYPE = U
NORAD_CAT_ID   = 67688
ELEMENT_SET_NO = 999
REV_AT_EPOCH   = 432
BSTAR          = .10313799E-2
MEAN_MOTION_DOT = .63728E-3
MEAN_MOTION_DDOT = 0

CCSDS_OMM_VERS = 2.0
CREATION_DATE  = 
ORIGINATOR     = 

OBJECT_NAME    = CREW DRAGON 12
OBJECT_ID      = 2026-031A
CENTER_NAME    = EARTH
REF_FRAME      = TEME
TIME_SYSTEM    = UTC
MEAN_ELEMENT_THEORY = SGP/SGP4

EPOCH          = 2026-03-07T06:06:36.812736
MEAN_MOTION    = 15.48501510
ECCENTRICITY   = .00081427
INCLINATION    = 51.6318
RA_OF_ASC_NODE = 84.3952
ARG_OF_PERICENTER = 166.2106
MEAN_ANOMALY   = 193.9106

EPHEMERIS_TYPE = 0
CLASSIFICATION_TYPE = U
NORAD_CAT_ID   = 67796
ELEMENT_SET_NO = 999
REV_AT_EPOCH   = 55583
BSTAR          = .28420598E-3
MEAN_MOTION_DOT = .14982E-3
MEAN_MOTION_DDOT = 0

